{
  "norad_id": 51859,
  "name": "STARLINK-3560",
  "history": [
    {
      "epoch": "2026-03-28T22:21:39.293856Z",
      "apogee_km": 540.7111416527805,
      "perigee_km": 538.7437010113536,
      "latitude_deg": -3.455826791575515e-06,
      "longitude_deg": 120.98990694591828,
      "height_km": 540.6437479859684,
      "semi_major_axis_km": 6917.864421332067,
      "eccentricity": 0.0001422,
      "inclination_deg": 53.2167,
      "raan_deg": 282.7487,
      "arg_perigee_deg": 91.2103,
      "mean_anomaly_deg": 268.9052,
      "mean_motion_rev_day": 15.08845224
    }
  ]
}